O3B MPOWER F1           
1 54755U 22174A   23331.00719832 -.00000020  00000+0  00000+0 0  9995
2 54755   0.0544  18.1297 0005699 242.4140  16.4665  5.00118410 18664
